STARLINK-37700          
1 69215U 26115E   26169.60661113  .00042567  00000+0  77917-3 0  9993
2 69215  97.2833 186.6108 0001221  87.6168 272.5223 15.49223121  4871
STARLINK-37766          
1 69216U 26115F   26169.58334491 -.01637434  00000+0 -34193-1 0  9990
2 69216  97.2853 186.9399 0001880 109.2978 234.4510 15.48635983  4913
STARLINK-37763          
1 69217U 26115G   26169.58334491  .00014154  00000+0  26146-3 0  9997
2 69217  97.2848 186.8870 0001380  93.8546 121.8046 15.49186025  4917
STARLINK-37724          
1 69218U 26115H   26169.58334491 -.02445257  00000+0 -59987-1 0  9991
2 69218  97.2854 186.9855 0001545  96.6351 328.3151 15.44244371  4912
STARLINK-37758          
1 69219U 26115J   26169.58334491 -.02410594  00000+0 -57669-1 0  9993
2 69219  97.2847 186.9950 0001539  78.3189  10.8153 15.44927917  4919
STARLINK-37201          
1 69220U 26115K   26169.58334491 -.02412900  00000+0 -58942-1 0  9993
2 69220  97.2851 186.9926 0001569  93.5401 345.8676 15.44320088  4915
STARLINK-37728          
1 69221U 26115L   26169.58334491 -.02581811  00000+0 -53349-1 0  9998
2 69221  97.2845 186.9766 0001088  72.3550 352.8167 15.49392070  4915
STARLINK-37760          
1 69222U 26115M   26169.58334491 -.02471098  00000+0 -57600-1 0  9998
2 69222  97.2855 187.0024 0001571  75.1289  38.7987 15.45773815  4919
STARLINK-37759          
1 69223U 26115N   26169.58334491  .00028459  00000+0  52304-3 0  9992
2 69223  97.2848 186.8919 0001240 103.8294 120.3618 15.49189109  4910
STARLINK-37725          
1 69224U 26115P   26169.58334491  .00020849  00000+0  38382-3 0  9998
2 69224  97.2846 186.8967 0001130  91.8427 144.9579 15.49201949  4919
STARLINK-37770          
1 69225U 26115Q   26169.58334491 -.02482267  00000+0 -55685-1 0  9992
2 69225  97.2856 187.0167 0001701  79.7731  69.5504 15.46896689  4911
STARLINK-37736          
1 69226U 26115R   26169.58334491 -.00229777  00000+0 -43331-2 0  9992
2 69226  97.2916 186.9997 0001542  99.7339  19.6542 15.49282695  4914
STARLINK-37737          
1 69227U 26115S   26169.58334491 -.02434323  00000+0 -51676-1 0  9990
2 69227  97.2857 187.0288 0001836  76.2919 102.8169 15.48407360  4933
STARLINK-37618          
1 69228U 26115T   26169.58334491  .00035169  00000+0  64546-3 0  9994
2 69228  97.2845 186.8894 0001542  96.8215 120.8303 15.49186397  4915
STARLINK-37679          
1 69229U 26115U   26169.58334491  .00041585  00000+0  76213-3 0  9998
2 69229  97.2849 186.8955 0001148 101.7391 130.2855 15.49193804  4919
STARLINK-37746          
1 69230U 26115V   26169.58334491  .00011318  00000+0  20945-3 0  9992
2 69230  97.2848 186.8746 0000898 156.3709  30.0114 15.49190280  4918
STARLINK-37557          
1 69231U 26115W   26169.51022045  .00034285  00000+0  62868-3 0  9993
2 69231  97.2839 186.7423 0001003  77.0430 283.0933 15.49218134  4872
STARLINK-37745          
1 69232U 26115X   26169.58334491 -.02259481  00000+0 -46599-1 0  9994
2 69232  97.2855 187.0557 0001670  89.7192 152.2419 15.49551265  4914
STARLINK-37739          
1 69233U 26115Y   26169.58334491  .00009607  00000+0  17808-3 0  9997
2 69233  97.2849 186.8704 0001215  82.1048  93.5803 15.49188990  4916
STARLINK-37755          
1 69234U 26115Z   26169.59296996  .00244813  00000+0  15880-2 0  9993
2 69234  97.2830 187.0892 0001271  86.4163 273.7248 15.75300780  4901
TJS-24                  
1 69235U 26116A   26169.64496166 -.00000238  00000+0  00000+0 0  9999
2 69235   0.0112  81.6168 0000311 311.6283 196.1049  1.00272489   249
STARLINK-37665          
1 69238U 26117A   26169.50892376  .00278139  00000+0  12880-2 0  9999
2 69238  53.1573 236.9878 0001864 338.0034  22.0909 15.82172561  3189
STARLINK-37558          
1 69239U 26117B   26169.57114205  .00281915  00000+0  13033-2 0  9992
2 69239  53.1570 236.6637 0000213 142.7129 217.3909 15.82197761  3198
STARLINK-37680          
1 69240U 26117C   26169.19064905  .00288872  00000+0  13391-2 0  9999
2 69240  53.1576 238.5570 0001356 106.0153 254.1020 15.82121723  3134
STARLINK-37742          
1 69241U 26117D   26169.63109817  .00293953  00000+0  13676-2 0  9993
2 69241  53.1572 236.3256 0002576  32.2260 327.8920 15.82028722  3202
STARLINK-37718          
1 69242U 26117E   26169.44033477  .00261084  00000+0  12229-2 0  9994
2 69242  53.1573 237.2679 0001781  39.6793 320.4361 15.81973754  3179
STARLINK-37735          
1 69243U 26117F   26168.68212490  .00197947  00000+0  93063-3 0  9996
2 69243  53.1576 241.0729 0000921 106.9398 253.1726 15.82070089  3050
STARLINK-37757          
1 69244U 26117G   26169.50099632  .00289128  00000+0  13347-2 0  9999
2 69244  53.1574 236.9339 0000464 291.9900  68.1074 15.82209668  3186
STARLINK-37767          
1 69245U 26117H   26169.49674430  .00234493  00000+0  11013-2 0  9996
2 69245  53.1568 236.9041 0001730  35.2639 324.8499 15.81989956  3182
