OBJECT_NAME,OBJECT_ID,EPOCH,MEAN_MOTION,ECCENTRICITY,INCLINATION,RA_OF_ASC_NODE,ARG_OF_PERICENTER,MEAN_ANOMALY,EPHEMERIS_TYPE,CLASSIFICATION_TYPE,NORAD_CAT_ID,ELEMENT_SET_NO,REV_AT_EPOCH,BSTAR,MEAN_MOTION_DOT,MEAN_MOTION_DDOT
STARLINK-37700,2026-115E,2026-06-18T14:33:31.201632,15.49223121,.00012212,97.2833,186.6108,87.6168,272.5223,0,U,69215,999,487,.77917111E-3,.42567E-3,0
STARLINK-37766,2026-115F,2026-06-18T14:00:01.000224,15.48635983,.00018807,97.2853,186.9399,109.2978,234.4510,0,U,69216,999,491,-.34192814E-1,-.1637434E-1,0
STARLINK-37763,2026-115G,2026-06-18T14:00:01.000224,15.49186025,.00013805,97.2848,186.8870,93.8546,121.8046,0,U,69217,999,491,.26146041E-3,.14154E-3,0
STARLINK-37724,2026-115H,2026-06-18T14:00:01.000224,15.44244371,.00015455,97.2854,186.9855,96.6351,328.3151,0,U,69218,999,491,-.59986859E-1,-.2445257E-1,0
STARLINK-37758,2026-115J,2026-06-18T14:00:01.000224,15.44927917,.0001539,97.2847,186.9950,78.3189,10.8153,0,U,69219,999,491,-.57669303E-1,-.2410594E-1,0
STARLINK-37201,2026-115K,2026-06-18T14:00:01.000224,15.44320088,.00015696,97.2851,186.9926,93.5401,345.8676,0,U,69220,999,491,-.58942435E-1,-.24129E-1,0
STARLINK-37728,2026-115L,2026-06-18T14:00:01.000224,15.49392070,.00010885,97.2845,186.9766,72.3550,352.8167,0,U,69221,999,491,-.5334922E-1,-.2581811E-1,0
STARLINK-37760,2026-115M,2026-06-18T14:00:01.000224,15.45773815,.00015717,97.2855,187.0024,75.1289,38.7987,0,U,69222,999,491,-.57600462E-1,-.2471098E-1,0
STARLINK-37759,2026-115N,2026-06-18T14:00:01.000224,15.49189109,.00012407,97.2848,186.8919,103.8294,120.3618,0,U,69223,999,491,.52303947E-3,.28459E-3,0
STARLINK-37725,2026-115P,2026-06-18T14:00:01.000224,15.49201949,.00011301,97.2846,186.8967,91.8427,144.9579,0,U,69224,999,491,.38382207E-3,.20849E-3,0
STARLINK-37770,2026-115Q,2026-06-18T14:00:01.000224,15.46896689,.00017019,97.2856,187.0167,79.7731,69.5504,0,U,69225,999,491,-.5568537E-1,-.2482267E-1,0
STARLINK-37736,2026-115R,2026-06-18T14:00:01.000224,15.49282695,.00015423,97.2916,186.9997,99.7339,19.6542,0,U,69226,999,491,-.43330513E-2,-.229777E-2,0
STARLINK-37737,2026-115S,2026-06-18T14:00:01.000224,15.48407360,.00018366,97.2857,187.0288,76.2919,102.8169,0,U,69227,999,493,-.51675608E-1,-.2434323E-1,0
STARLINK-37618,2026-115T,2026-06-18T14:00:01.000224,15.49186397,.00015425,97.2845,186.8894,96.8215,120.8303,0,U,69228,999,491,.64546407E-3,.35169E-3,0
STARLINK-37679,2026-115U,2026-06-18T14:00:01.000224,15.49193804,.00011481,97.2849,186.8955,101.7391,130.2855,0,U,69229,999,491,.76212792E-3,.41585E-3,0
STARLINK-37746,2026-115V,2026-06-18T14:00:01.000224,15.49190280,.0000898,97.2848,186.8746,156.3709,30.0114,0,U,69230,999,491,.20945318E-3,.11318E-3,0
STARLINK-37557,2026-115W,2026-06-18T12:14:43.046880,15.49218134,.00010038,97.2839,186.7423,77.0430,283.0933,0,U,69231,999,487,.62868416E-3,.34285E-3,0
STARLINK-37745,2026-115X,2026-06-18T14:00:01.000224,15.49551265,.00016703,97.2855,187.0557,89.7192,152.2419,0,U,69232,999,491,-.46599473E-1,-.2259481E-1,0
STARLINK-37739,2026-115Y,2026-06-18T14:00:01.000224,15.49188990,.00012159,97.2849,186.8704,82.1048,93.5803,0,U,69233,999,491,.17808084E-3,.9607E-4,0
STARLINK-37755,2026-115Z,2026-06-18T14:13:52.604544,15.75300780,.00012714,97.2830,187.0892,86.4163,273.7248,0,U,69234,999,490,.15879746E-2,.244813E-2,0
TJS-24,2026-116A,2026-06-18T15:28:44.687424,1.00272489,.00003117,0.0112,81.6168,311.6283,196.1049,0,U,69235,999,24,0,-.238E-5,0
STARLINK-37665,2026-117A,2026-06-18T12:12:51.012864,15.82172561,.00018644,53.1573,236.9878,338.0034,22.0909,0,U,69238,999,318,.12880099E-2,.278139E-2,0
STARLINK-37558,2026-117B,2026-06-18T13:42:26.673120,15.82197761,.00002135,53.1570,236.6637,142.7129,217.3909,0,U,69239,999,319,.13032702E-2,.281915E-2,0
STARLINK-37680,2026-117C,2026-06-18T04:34:32.077920,15.82121723,.00013565,53.1576,238.5570,106.0153,254.1020,0,U,69240,999,313,.13390852E-2,.288872E-2,0
STARLINK-37742,2026-117D,2026-06-18T15:08:46.881888,15.82028722,.00025765,53.1572,236.3256,32.2260,327.8920,0,U,69241,999,320,.13676271E-2,.293953E-2,0
STARLINK-37718,2026-117E,2026-06-18T10:34:04.924128,15.81973754,.00017812,53.1573,237.2679,39.6793,320.4361,0,U,69242,999,317,.1222891E-2,.261084E-2,0
STARLINK-37735,2026-117F,2026-06-17T16:22:15.591360,15.82070089,.00009213,53.1576,241.0729,106.9398,253.1726,0,U,69243,999,305,.930631E-3,.197947E-2,0
STARLINK-37757,2026-117G,2026-06-18T12:01:26.082048,15.82209668,.00004642,53.1574,236.9339,291.9900,68.1074,0,U,69244,999,318,.13346957E-2,.289128E-2,0
STARLINK-37767,2026-117H,2026-06-18T11:55:18.707520,15.81989956,.00017301,53.1568,236.9041,35.2639,324.8499,0,U,69245,999,318,.11012518E-2,.234493E-2,0
